TEVEL2-2                
1 63219U 25052K   26131.69631435  .00010457  00000+0  33403-3 0  9997
2 63219  97.3918  27.6678 0000928 207.5776 152.5417 15.32651776 64502
TEVEL2-9                
1 63237U 25052AD  26131.95474666  .00009699  00000+0  32845-3 0  9992
2 63237  97.3983  27.3766 0004019 269.8533  90.2247 15.30781640 64484
TEVEL2-7                
1 63238U 25052AE  26132.18520028  .00009481  00000+0  32376-3 0  9991
2 63238  97.3985  27.5369 0004099 268.9075  91.1696 15.30518741 64519
TEVEL2-8                
1 63239U 25052AF  26132.19305245  .00009338  00000+0  31910-3 0  9999
2 63239  97.3984  27.5227 0004122 269.9379  90.1389 15.30500557 64511
HADES-ICM               
1 63492U 25052BN  26131.27753768  .00648393  17188-3  19229-2 0  9992
2 63492  97.3763  35.2336 0008532 169.1734 190.9726 15.92461864 64967
INNOSAT 16 (RS92S7)     
1 64878U 25155C   26132.18155510  .00003845  00000+0  15660-3 0  9991
2 64878  97.4540  99.4412 0009094 321.5335  38.5253 15.25058837 75188
GEOSCAN 6 (RS92S6)      
1 64879U 25155D   26132.14018360  .00006563  00000+0  23241-3 0  9993
2 64879  97.4534 100.5783 0006024 317.0357  43.0412 15.29456284 75259
GEOSCAN 1 (RS92S1)      
1 64880U 25155E   26132.15594608  .00006613  00000+0  23033-3 0  9995
2 64880  97.4531 100.7124 0005939 317.3308  42.7471 15.29994615 75269
239ALFEROV (RS61S)      
1 64881U 25155F   26132.17422441  .00008793  00000+0  28738-3 0  9991
2 64881  97.4532 101.1775 0005296 317.8754  42.2080 15.31957806 75292
GEOSCAN 2 (RS92S2)      
1 64890U 25155Q   26132.15608595  .00006734  00000+0  23252-3 0  9994
2 64890  97.4530 100.8505 0004971 300.7572  59.3179 15.30276035 75278
GEOSCAN 5 (RS92S5)      
1 64891U 25155R   26132.17073207  .00008775  00000+0  28398-3 0  9996
2 64891  97.4524 101.2978 0004449 330.0723  30.0264 15.32280259 75305
GEOSCAN 4 (RS92S4)      
1 64892U 25155S   26132.15826976  .00008904  00000+0  28694-3 0  9997
2 64892  97.4529 101.3240 0004494 330.5410  29.5578 15.32411743 75307
GEOSCAN 3 (RS92S3)      
1 64893U 25155T   26132.13750512  .00010966  00000+0  33388-3 0  9995
2 64893  97.4517 101.6355 0004108 333.9171  26.1864 15.34164805 75327
INNOSAT 3 (RS92S0)      
1 64894U 25155U   26132.17871523  .00020995  00000+0  50490-3 0  9992
2 64894  97.4475 102.8903 0002650 349.7867  10.3325 15.41331770 75412
KNACKSAT-2              
1 67683U 98067XZ  26132.18116057  .00027445  00000+0  37954-3 0  9995
2 67683  51.6275 115.1313 0012571  65.5915 294.6387 15.56832181 14666
